SAUDISAT 1C
1 27607U 02058C   17279.44029422  .00000122  00000-0  38164-4 0  9991
2 27607  64.5548 145.5835 0034805  42.2572 318.1202 14.75372406795523
SAUDISAT 2
1 28371U 04025F   17279.34682364  .00000033  00000-0  18320-4 0  9998
2 28371  98.1466 230.9097 0025570 358.8988   1.2143 14.54268425703995
SAUDISAT 3
1 31118U 07012B   17279.36842189  .00000109  00000-0  26418-4 0  9996
2 31118  97.7397 266.9546 0013709 275.0662  84.8983 14.69072197561338
PISAT
1 41784U 16059B   17278.94196077  .00000167  00000-0  41584-4 0  9993
2 41784  98.1556 339.3311 0032349 170.5840 189.5976 14.63258617 54770
FLYING LAPTOP
1 42831U 17042G   17279.37535045  .00000412  00000-0  47429-4 0  9997
2 42831  97.6076 186.0492 0013477 329.7354  30.3085 14.90712442 12512